ONEWEB-0560             
1 55145U 23004F   25235.18360335  .00000021  00000+0  20738-4 0  9991
2 55145  87.9144  34.6628 0001577  87.3873 272.7440 13.18685526130432
ONEWEB-0565             
1 55146U 23004G   25232.82481188  .00000098  00000+0  21459-3 0  9994
2 55146  87.9131  35.1884 0001318 103.0783 257.0497 13.18688697130113
ONEWEB-0567             
1 55147U 23004H   25234.71512980 -.00000054  00000+0 -16978-3 0  9994
2 55147  87.9142  34.7705 0001401  94.7607 265.3686 13.18686792130360
ONEWEB-0569             
1 55148U 23004J   25235.30608975  .00000272  00000+0  71099-3 0  9996
2 55148  87.9003  19.3755 0000896  75.7393 284.3835 13.13469673131077
ONEWEB-0570             
1 55149U 23004K   25235.16050931 -.00000002  00000+0 -37538-4 0  9998
2 55149  87.9138  34.6832 0001816 112.9704 247.1620 13.18686034130419
ONEWEB-0571             
1 55150U 23004L   25235.15391305  .00000259  00000+0  62426-3 0  9997
2 55150  87.9136  34.6902 0000622 122.8741 237.2451 13.18685227130428
ONEWEB-0572             
1 55151U 23004M   25234.48270804  .00000047  00000+0  87239-4 0  9998
2 55151  87.9032  65.3001 0001652  93.9172 266.2148 13.17650117128145
ONEWEB-0573             
1 55152U 23004N   25235.14729655 -.00000221  00000+0 -59369-3 0  9994
2 55152  87.9135  34.6981 0001271 122.5177 237.6078 13.18686796130417
